FLOCK 4H-15             
1 66718U 25276BE  26193.79362049  .00004156  00000+0  19689-3 0  9992
2 66718  97.4218 266.8606 0002704 288.9439  71.1503 15.19865319 34306
FLOCK 4H-16             
1 66719U 25276BF  26193.43762390  .00003809  00000+0  17933-3 0  9991
2 66719  97.4234 266.6191 0002702 272.6174  87.4752 15.20128334 34257
FLOCK 4H-18             
1 66721U 25276BH  26193.77282843  .00004148  00000+0  19536-3 0  9999
2 66721  97.4176 266.7646 0002297 307.3848  52.7178 15.20073104 34301
FLOCK 4H-19             
1 66722U 25276BJ  26193.51089116  .00003274  00000+0  14962-3 0  9997
2 66722  97.4177 266.9648 0002165 154.1760 205.9584 15.21266946 33583
FLOCK 4H-20             
1 66723U 25276BK  26193.77639696  .00004128  00000+0  18693-3 0  9994
2 66723  97.4213 267.3305 0002588 177.2483 182.8767 15.21427583 33589
FLOCK 4H-21             
1 66724U 25276BL  26193.74130817  .00003908  00000+0  17928-3 0  9998
2 66724  97.4178 267.1228 0002449 176.0754 184.0501 15.21013868 33572
FLOCK 4H-22             
1 66725U 25276BM  26193.78504764  .00004460  00000+0  20719-3 0  9995
2 66725  97.4169 266.8786 0001149 317.1085  43.0060 15.20503101 34319
FLOCK 4H-23             
1 66726U 25276BN  26193.70630223  .00003820  00000+0  18029-3 0  9998
2 66726  97.4240 266.8850 0002843 258.9700 101.1215 15.20050752 34294
FLOCK 4H-24             
1 66727U 25276BP  26193.75709286  .00004776  00000+0  22384-3 0  9990
2 66727  97.4237 266.9635 0002387 282.7277  77.3691 15.20162058 34307
FLOCK 4H-25             
1 66728U 25276BQ  26193.75964903  .00004326  00000+0  19863-3 0  9999
2 66728  97.4189 267.1320 0001777 126.9647 233.1752 15.20926934 33603
FLOCK 4H-26             
1 66729U 25276BR  26193.65840936  .00003788  00000+0  17967-3 0  9992
2 66729  97.4189 266.6511 0003207 279.0063  81.0809 15.19882668 34283
FLOCK 4H-27             
1 66730U 25276BS  26193.78998228  .00004290  00000+0  19799-3 0  9990
2 66730  97.4166 267.0166 0001401 126.2432 233.8933 15.20752467 34323
FLOCK 4H-29             
1 66732U 25276BU  26193.76983418  .00004351  00000+0  20505-3 0  9990
2 66732  97.4170 266.7432 0001728 301.7488  58.3579 15.20024779 34307
FLOCK 4H-30             
1 66733U 25276BV  26193.76193175  .00004470  00000+0  20980-3 0  9993
2 66733  97.4229 266.9403 0002598 279.6309  80.4633 15.20147923 34308
FLOCK 4H-31             
1 66734U 25276BW  26193.78255078  .00003884  00000+0  18389-3 0  9995
2 66734  97.4167 266.7231 0002158 295.1342  64.9669 15.19924359 34309
FLOCK 4H-32             
1 66735U 25276BX  26193.77064802  .00004154  00000+0  19578-3 0  9990
2 66735  97.4222 266.9055 0002998 275.3178  84.7715 15.20043550 34306
