{"fetched_at":"2026-07-13T07:47:56.614Z","source":"https://celestrak.org/NORAD/elements/gp.php?GROUP=planet&FORMAT=JSON","constellation":"superdove","records":[{"OBJECT_NAME":"FLOCK 4H-15","OBJECT_ID":"2025-276BE","EPOCH":"2026-07-12T19:02:48.810336","CLASSIFICATION_TYPE":"U","MEAN_MOTION":15.19865319,"ECCENTRICITY":0.0002704,"INCLINATION":97.4218,"RA_OF_ASC_NODE":266.8606,"ARG_OF_PERICENTER":288.9439,"MEAN_ANOMALY":71.1503,"EPHEMERIS_TYPE":0,"NORAD_CAT_ID":66718,"ELEMENT_SET_NO":999,"REV_AT_EPOCH":3430,"BSTAR":0.00019689,"MEAN_MOTION_DOT":0.00004156,"MEAN_MOTION_DDOT":0},{"OBJECT_NAME":"FLOCK 4H-16","OBJECT_ID":"2025-276BF","EPOCH":"2026-07-12T10:30:10.704960","CLASSIFICATION_TYPE":"U","MEAN_MOTION":15.20128334,"ECCENTRICITY":0.00027027,"INCLINATION":97.4234,"RA_OF_ASC_NODE":266.6191,"ARG_OF_PERICENTER":272.6174,"MEAN_ANOMALY":87.4752,"EPHEMERIS_TYPE":0,"NORAD_CAT_ID":66719,"ELEMENT_SET_NO":999,"REV_AT_EPOCH":3425,"BSTAR":0.00017933413,"MEAN_MOTION_DOT":0.00003809,"MEAN_MOTION_DDOT":0},{"OBJECT_NAME":"FLOCK 4H-18","OBJECT_ID":"2025-276BH","EPOCH":"2026-07-12T18:32:52.376352","CLASSIFICATION_TYPE":"U","MEAN_MOTION":15.20073104,"ECCENTRICITY":0.0002297,"INCLINATION":97.4176,"RA_OF_ASC_NODE":266.7646,"ARG_OF_PERICENTER":307.3848,"MEAN_ANOMALY":52.7178,"EPHEMERIS_TYPE":0,"NORAD_CAT_ID":66721,"ELEMENT_SET_NO":999,"REV_AT_EPOCH":3430,"BSTAR":0.00019536,"MEAN_MOTION_DOT":0.00004148,"MEAN_MOTION_DDOT":0},{"OBJECT_NAME":"FLOCK 4H-19","OBJECT_ID":"2025-276BJ","EPOCH":"2026-07-12T12:15:40.996224","CLASSIFICATION_TYPE":"U","MEAN_MOTION":15.21266946,"ECCENTRICITY":0.00021654,"INCLINATION":97.4177,"RA_OF_ASC_NODE":266.9648,"ARG_OF_PERICENTER":154.176,"MEAN_ANOMALY":205.9584,"EPHEMERIS_TYPE":0,"NORAD_CAT_ID":66722,"ELEMENT_SET_NO":999,"REV_AT_EPOCH":3358,"BSTAR":0.00014962306,"MEAN_MOTION_DOT":0.00003274,"MEAN_MOTION_DDOT":0},{"OBJECT_NAME":"FLOCK 4H-20","OBJECT_ID":"2025-276BK","EPOCH":"2026-07-12T18:38:00.697344","CLASSIFICATION_TYPE":"U","MEAN_MOTION":15.21427583,"ECCENTRICITY":0.0002588,"INCLINATION":97.4213,"RA_OF_ASC_NODE":267.3305,"ARG_OF_PERICENTER":177.2483,"MEAN_ANOMALY":182.8767,"EPHEMERIS_TYPE":0,"NORAD_CAT_ID":66723,"ELEMENT_SET_NO":999,"REV_AT_EPOCH":3358,"BSTAR":0.00018693,"MEAN_MOTION_DOT":0.00004128,"MEAN_MOTION_DDOT":0},{"OBJECT_NAME":"FLOCK 4H-21","OBJECT_ID":"2025-276BL","EPOCH":"2026-07-12T17:47:29.025888","CLASSIFICATION_TYPE":"U","MEAN_MOTION":15.21013868,"ECCENTRICITY":0.0002449,"INCLINATION":97.4178,"RA_OF_ASC_NODE":267.1228,"ARG_OF_PERICENTER":176.0754,"MEAN_ANOMALY":184.0501,"EPHEMERIS_TYPE":0,"NORAD_CAT_ID":66724,"ELEMENT_SET_NO":999,"REV_AT_EPOCH":3357,"BSTAR":0.00017928,"MEAN_MOTION_DOT":0.00003908,"MEAN_MOTION_DDOT":0},{"OBJECT_NAME":"FLOCK 4H-22","OBJECT_ID":"2025-276BM","EPOCH":"2026-07-12T18:50:28.116096","CLASSIFICATION_TYPE":"U","MEAN_MOTION":15.20503101,"ECCENTRICITY":0.0001149,"INCLINATION":97.4169,"RA_OF_ASC_NODE":266.8786,"ARG_OF_PERICENTER":317.1085,"MEAN_ANOMALY":43.006,"EPHEMERIS_TYPE":0,"NORAD_CAT_ID":66725,"ELEMENT_SET_NO":999,"REV_AT_EPOCH":3431,"BSTAR":0.00020719,"MEAN_MOTION_DOT":0.0000446,"MEAN_MOTION_DDOT":0},{"OBJECT_NAME":"FLOCK 4H-23","OBJECT_ID":"2025-276BN","EPOCH":"2026-07-12T16:57:04.512672","CLASSIFICATION_TYPE":"U","MEAN_MOTION":15.20050752,"ECCENTRICITY":0.0002843,"INCLINATION":97.424,"RA_OF_ASC_NODE":266.885,"ARG_OF_PERICENTER":258.97,"MEAN_ANOMALY":101.1215,"EPHEMERIS_TYPE":0,"NORAD_CAT_ID":66726,"ELEMENT_SET_NO":999,"REV_AT_EPOCH":3429,"BSTAR":0.00018029,"MEAN_MOTION_DOT":0.0000382,"MEAN_MOTION_DDOT":0},{"OBJECT_NAME":"FLOCK 4H-24","OBJECT_ID":"2025-276BP","EPOCH":"2026-07-12T18:10:12.823104","CLASSIFICATION_TYPE":"U","MEAN_MOTION":15.20162058,"ECCENTRICITY":0.0002387,"INCLINATION":97.4237,"RA_OF_ASC_NODE":266.9635,"ARG_OF_PERICENTER":282.7277,"MEAN_ANOMALY":77.3691,"EPHEMERIS_TYPE":0,"NORAD_CAT_ID":66727,"ELEMENT_SET_NO":999,"REV_AT_EPOCH":3430,"BSTAR":0.00022384,"MEAN_MOTION_DOT":0.00004776,"MEAN_MOTION_DDOT":0},{"OBJECT_NAME":"FLOCK 4H-25","OBJECT_ID":"2025-276BQ","EPOCH":"2026-07-12T18:13:53.676192","CLASSIFICATION_TYPE":"U","MEAN_MOTION":15.20926934,"ECCENTRICITY":0.0001777,"INCLINATION":97.4189,"RA_OF_ASC_NODE":267.132,"ARG_OF_PERICENTER":126.9647,"MEAN_ANOMALY":233.1752,"EPHEMERIS_TYPE":0,"NORAD_CAT_ID":66728,"ELEMENT_SET_NO":999,"REV_AT_EPOCH":3360,"BSTAR":0.00019863,"MEAN_MOTION_DOT":0.00004326,"MEAN_MOTION_DDOT":0},{"OBJECT_NAME":"FLOCK 4H-26","OBJECT_ID":"2025-276BR","EPOCH":"2026-07-12T15:48:06.568704","CLASSIFICATION_TYPE":"U","MEAN_MOTION":15.19882668,"ECCENTRICITY":0.0003207,"INCLINATION":97.4189,"RA_OF_ASC_NODE":266.6511,"ARG_OF_PERICENTER":279.0063,"MEAN_ANOMALY":81.0809,"EPHEMERIS_TYPE":0,"NORAD_CAT_ID":66729,"ELEMENT_SET_NO":999,"REV_AT_EPOCH":3428,"BSTAR":0.00017967,"MEAN_MOTION_DOT":0.00003788,"MEAN_MOTION_DDOT":0},{"OBJECT_NAME":"FLOCK 4H-27","OBJECT_ID":"2025-276BS","EPOCH":"2026-07-12T18:57:34.468992","CLASSIFICATION_TYPE":"U","MEAN_MOTION":15.20752467,"ECCENTRICITY":0.0001401,"INCLINATION":97.4166,"RA_OF_ASC_NODE":267.0166,"ARG_OF_PERICENTER":126.2432,"MEAN_ANOMALY":233.8933,"EPHEMERIS_TYPE":0,"NORAD_CAT_ID":66730,"ELEMENT_SET_NO":999,"REV_AT_EPOCH":3432,"BSTAR":0.00019799,"MEAN_MOTION_DOT":0.0000429,"MEAN_MOTION_DDOT":0},{"OBJECT_NAME":"FLOCK 4H-29","OBJECT_ID":"2025-276BU","EPOCH":"2026-07-12T18:28:33.673152","CLASSIFICATION_TYPE":"U","MEAN_MOTION":15.20024779,"ECCENTRICITY":0.0001728,"INCLINATION":97.417,"RA_OF_ASC_NODE":266.7432,"ARG_OF_PERICENTER":301.7488,"MEAN_ANOMALY":58.3579,"EPHEMERIS_TYPE":0,"NORAD_CAT_ID":66732,"ELEMENT_SET_NO":999,"REV_AT_EPOCH":3430,"BSTAR":0.00020505,"MEAN_MOTION_DOT":0.00004351,"MEAN_MOTION_DDOT":0},{"OBJECT_NAME":"FLOCK 4H-30","OBJECT_ID":"2025-276BV","EPOCH":"2026-07-12T18:17:10.903200","CLASSIFICATION_TYPE":"U","MEAN_MOTION":15.20147923,"ECCENTRICITY":0.0002598,"INCLINATION":97.4229,"RA_OF_ASC_NODE":266.9403,"ARG_OF_PERICENTER":279.6309,"MEAN_ANOMALY":80.4633,"EPHEMERIS_TYPE":0,"NORAD_CAT_ID":66733,"ELEMENT_SET_NO":999,"REV_AT_EPOCH":3430,"BSTAR":0.0002098,"MEAN_MOTION_DOT":0.0000447,"MEAN_MOTION_DDOT":0},{"OBJECT_NAME":"FLOCK 4H-31","OBJECT_ID":"2025-276BW","EPOCH":"2026-07-12T18:46:52.387392","CLASSIFICATION_TYPE":"U","MEAN_MOTION":15.19924359,"ECCENTRICITY":0.0002158,"INCLINATION":97.4167,"RA_OF_ASC_NODE":266.7231,"ARG_OF_PERICENTER":295.1342,"MEAN_ANOMALY":64.9669,"EPHEMERIS_TYPE":0,"NORAD_CAT_ID":66734,"ELEMENT_SET_NO":999,"REV_AT_EPOCH":3430,"BSTAR":0.00018389,"MEAN_MOTION_DOT":0.00003884,"MEAN_MOTION_DDOT":0},{"OBJECT_NAME":"FLOCK 4H-32","OBJECT_ID":"2025-276BX","EPOCH":"2026-07-12T18:29:43.988928","CLASSIFICATION_TYPE":"U","MEAN_MOTION":15.2004355,"ECCENTRICITY":0.0002998,"INCLINATION":97.4222,"RA_OF_ASC_NODE":266.9055,"ARG_OF_PERICENTER":275.3178,"MEAN_ANOMALY":84.7715,"EPHEMERIS_TYPE":0,"NORAD_CAT_ID":66735,"ELEMENT_SET_NO":999,"REV_AT_EPOCH":3430,"BSTAR":0.00019578,"MEAN_MOTION_DOT":0.00004154,"MEAN_MOTION_DDOT":0}]}
